#cP2023  7 11  0  0  0.00000000      96 ORBIT IGS20 HLM  IGS
## 2270 172800.00000000   900.00000000 60136 0.0000000000000
+   32   G01G02G03G04G05G06G07G08G09G10G11G12G13G14G15G16G17
+        G18G19G20G21G22G23G24G25G26G27G28G29G30G31G32  0  0
+          0  0  0  0  0  0  0  0  0  0  0  0  0  0  0  0  0
+          0  0  0  0  0  0  0  0  0  0  0  0  0  0  0  0  0
+          0  0  0  0  0  0  0  0  0  0  0  0  0  0  0  0  0
++         2  2  2  2  2  2  2  2  2  2  2  2  2  2  2  2  3
++         2  2  2  2  2  2  2  2  2  2  0  2  2  2  2  0  0
++         0  0  0  0  0  0  0  0  0  0  0  0  0  0  0  0  0
++         0  0  0  0  0  0  0  0  0  0  0  0  0  0  0  0  0
++         0  0  0  0  0  0  0  0  0  0  0  0  0  0  0  0  0
%c G  cc GPS ccc cccc cccc cccc cccc ccccc ccccc ccccc ccccc
%c cc cc ccc ccc cccc cccc cccc cccc ccccc ccccc ccccc ccccc
%f  1.2500000  1.025000000  0.00000000000  0.000000000000000
%f  0.0000000  0.000000000  0.00000000000  0.000000000000000
%i    0    0    0    0      0      0      0      0         0
%i    0    0    0    0      0      0      0      0         0
/* RAPID ORBIT COMBINATION FROM WEIGHTED AVERAGE OF:        
/* cod emr esa gfz grg jgx jpl ngs sio usn whu              
/* REFERENCED TO IGS TIME (IGST) AND TO WEIGHTED MEAN POLE: 
/* PCV:IGS20      OL/AL:FES2014b NONE     Y  ORB:CMB CLK:CMB
*  2023  7 11 23 15  0.00000000
PG01 -13259.355697  13381.247953  18232.608142    173.496000  6 11  4  90       
PG02 -14723.126832   7026.312876  21435.030476   -577.107547  9  8  6  85       
PG03 -22903.281262  13060.925276  -2758.265256   -236.361832  7  8  7 103       
PG04 -15566.594298   6337.080780 -20581.299440     93.103596  4  7  7 116       
PG05  23297.603273  -2558.951182 -12782.715386   -134.537129  8  5  7 103       
PG06   5817.122975  23017.044041 -11753.082523    578.755388  6  5  4  92       
PG07  -6084.356884  24803.514240  -5836.106595    127.776094  7  5  4 100       
PG08 -22738.439131  -3212.071765  13604.783752   -131.704212  8  6 10  88       
PG09  -6075.080339  14253.228883 -21643.458457   -114.503721  8  9  4 115       
PG10  -2257.702773 -15178.616943  21817.735010    -44.793270  6  7  7  90       
PG11  13149.202604  10231.769675 -20684.583900   -272.078262  9  4  7 108       
PG12  24679.206839  -9686.872951    206.221048   -399.550935  7  6  5 116       
PG13  22087.958930  12178.590382   8474.362309    545.868801  7  5  5 103       
PG14  -1489.157818  16777.060151  20519.097163    119.303661  7  7  4 106       
PG15  22759.741351     70.509248  13430.324923     57.141820  5  5  7 105       
PG16 -21773.150117  -3243.468308 -15482.629043   -481.846722  8  6  6  92       
PG17   9543.458170  20132.157320  14806.339207    720.761648 11  9  9  82       
PG18   4873.311807 -25763.772389  -3629.927646   -341.986508  8  5  7 113       
PG19  15782.624539  20128.664187   7530.767925    342.615148  9  6 11 134       
PG20  17494.497294   4567.397546 -19358.110148    423.179840  7  6  7 100       
PG21 -15292.359955   2995.097109  21971.107873    152.251979  7  8  6  96       
PG22 -17726.720473 -19248.959030   5463.251514    511.372740 10  6  8 112       
PG23  10897.311324 -17977.362685  16137.834765     42.254046  6  5  6 119       
PG24  14562.248395  -8976.020118  19852.931997   -254.740146  6  4  3 108       
PG25  17149.027760 -17146.482067 -10830.753189    455.519830  4  7  7 103       
PG26 -13074.851954 -10319.234282 -20861.964402    236.736416  9  7  6 115       
PG27 -23225.526062 -12820.955671   3421.724373     -1.205574  8  9  8 100       
PG28  -5922.764319 -23963.592379  -9829.828076     82.831324  8  4  7 126       
PG29   8397.125016 -12349.555500 -22014.228516   -605.280330  6  7  7 131       
PG30    226.202635  26231.884053   3210.007602   -504.954996  9  6  5  96       
PG31 -11611.967155 -15254.505938 -18374.594217   -219.887279  8  6  7 117       
PG32 -13131.760871 -19492.036133  12746.221985   -519.192666  5  6  7 110       
*  2023  7 11 23 30  0.00000000
PG01 -13236.172088  11137.595518  19702.950624    173.494296  6 11  4 108       
PG02 -14865.932277   4650.755369  22002.859413   -577.104046  9  8  6  96       
PG03 -23119.555053  12937.782464    137.093115   -236.347876  8  8  7 105       
PG04 -17405.144104   4968.697889 -19464.820106     93.113316  5  6  7  86       
PG05  22039.650231  -1625.399136 -14995.613808   -134.538406  8  6  7 105       
PG06   5594.684951  24212.432857  -9184.048695    578.752293  7  5  5  91       
PG07  -6359.136696  23900.267840  -8531.911131    127.766567  7  6  4  93       
PG08 -23862.332747  -4104.240750  11287.498671   -131.705995  7  8 10  90       
PG09  -8194.555192  12988.502694 -21744.613884   -114.495423  8  9  5 108       
PG10    -88.324224 -16251.383317  21117.847354    -44.794894  7  7  8  93       
PG11  12848.090841  12517.801221 -19591.991311   -272.092716  9  4  7 105       
PG12  24579.970180  -9370.676563   3067.270054   -399.554880  7  6  5 115       
PG13  22589.821898  12872.163726   5768.719997    545.873013  8  5  6 107       
PG14  -3601.391937  17673.921263  19462.074970    119.314517  7  7  5 107       
PG15  23991.383949    917.838462  11164.503675     57.145018  6  5  7 104       
PG16 -20149.922440  -4058.291913 -17369.185311   -481.842595  8  6  7 103       
PG17   8046.973968  19230.499379  16824.942781    720.762616 11  9  8  81       
PG18   5063.169517 -25173.244908  -6443.744032   -341.999386  9  6  8 104       
PG19  14862.277934  19632.770697  10148.156658    342.619765 10  6 11 139       
PG20  15743.084158   6051.198182 -20439.788120    423.178213  7  6  7  94       
PG21 -15447.486459    586.652219  22139.235618    152.251403  7  8  6  97       
PG22 -17017.994979 -18986.744406   8172.585999    511.378062 10  6  8 116       
PG23  12486.811457 -18678.337588  14040.237372     42.257703  5  5  7 116       
PG24  14791.528628  -6575.986636  20633.036712   -254.751295  6  4  4 105       
PG25  18207.834662 -17420.345534  -8268.350210    455.521973  4  8  7  99       
PG26 -11056.486840 -11608.458293 -21318.156231    236.735383  9  7  7 110       
PG27 -23331.033069 -13130.990547    589.376274     -1.212492  8  9  8 110       
PG28  -5682.459002 -24933.882237  -7201.985942     82.830258  8  4  8 137       
PG29  10400.530943 -10854.547311 -21955.226094   -605.281041  6  7  8 120       
PG30   -130.839942  26411.041609    401.051402   -504.952580  9  6  5  98       
PG31 -11306.131072 -17230.871513 -16689.178705   -219.887902  8  6  8 111       
PG32 -11719.059403 -18828.818353  14943.597104   -519.199635  5  7  7 102       
*  2023  7 11 23 45  0.00000000
PG01 -13337.449757   8747.538549  20820.902264    173.492603  6 12  4 124       
PG02 -15141.922329   2246.083437  22208.579784   -577.100359  8  9  7 103       
PG03 -23060.482944  12656.008229   3030.061923   -236.333881  8  8  7 101       
PG04 -19187.821468   3774.273359 -18014.145407     93.123048  5  6  8 104       
PG05  20638.518562   -496.522645 -16954.671200   -134.540125  8  6  7  90       
PG06   5437.162842  25116.566140  -6455.746747    578.749142  7  5  5  92       
PG07  -6684.306192  22708.392972 -11074.055485    127.756810  7  7  5  80       
PG08 -24789.780851  -4809.752897   8779.272935   -131.707733  7  9 11 131       
PG09 -10367.713161  11839.546413 -21474.169960   -114.487093  9  9  7 107       
PG10   1936.650410 -17392.475421  20058.135774    -44.795956  7  7  8  97       
PG11  12672.898901  14673.405934 -18162.390195   -272.107208  8  5  7 107       
PG12  24210.867443  -8901.151382   5875.040401   -399.559333  7  6  5 115       
PG13  22879.650964  13349.064403   2964.568283    545.877611  8  5  7 106       
PG14  -5546.544130  18608.121549  18069.214377    119.325380  7  7  6 113       
PG15  25009.857698   1605.305377   8704.699381     57.148245  7  6  8 107       
PG16 -18397.979883  -5045.166562 -18968.331663   -481.838807  9  5  7 114       
PG17   6329.514943  18299.859886  18561.364715    720.763108 12  9  7  85       
PG18   5284.225951 -24279.963056  -9145.570561   -342.012301  9  7  8 104       
PG19  13679.280387  19024.029489  12592.288220    342.624292 10  7 10  84       
PG20  13991.303823   7686.319365 -21167.361983    423.176134  7  6  6  88       
PG21 -15730.937674  -1800.125772  21944.772049    152.250934  7  9  7 109       
PG22 -16053.322567 -18596.815079  10744.643753    511.382882 10  6  8 126       
PG23  13824.498210 -19327.799471  11699.204280     42.261345  5  6  8 117       
PG24  15138.614057  -4124.419898  21044.369112   -254.762425  6  5  5 103       
PG25  19000.690640 -17589.341272  -5563.043299    455.524096  4  8  8  90       
PG26  -9074.682634 -13013.053475 -21412.163855    236.734390  9  7  7 114       
PG27 -23174.767195 -13280.068829  -2252.894625     -1.219416  8  9  7 115       
PG28  -5477.064986 -25611.441256  -4450.299925     82.829209  8     8 139       
PG29  12458.615398  -9487.191984 -21520.511317   -605.282128  6  8  8 120       
PG30   -482.478943  26287.699694  -2414.908545   -504.950157  9  6  6  86       
PG31 -11100.504144 -19016.686235 -14715.250019   -219.888466  8  6  8 117       
PG32 -10069.426725 -18130.025428  16889.019618   -519.206614  6  7  7 119       
EOF
